{
  "type": "FeatureCollection",
  "features": [
    {
      "type": "Feature",
      "properties": {
        "norad_id": 37867,
        "name": "COSMOS 2476 (744)",
        "group": "glo-ops",
        "lat": -62.311952430080176,
        "lon": -39.52641254538721,
        "alt_km": 19078.153451224982,
        "timestamp": "2025-12-27T02:10:16.450440+00:00",
        "meta_object_name": "COSMOS 2476 (744)",
        "meta_object_id": "2011-064A",
        "meta_epoch": "2025-12-26T10:11:25.907424",
        "meta_mean_motion": 2.13103879,
        "meta_eccentricity": 0.0024578,
        "meta_inclination": 65.169,
        "meta_ra_of_asc_node": 78.7087,
        "meta_arg_of_pericenter": 235.1101,
        "meta_mean_anomaly": 231.2674,
        "meta_ephemeris_type": 0,
        "meta_classification_type": "U",
        "meta_norad_cat_id": 37867,
        "meta_element_set_no": 999,
        "meta_rev_at_epoch": 11008,
        "meta_bstar": 0,
        "meta_mean_motion_dot": -7e-08,
        "meta_mean_motion_ddot": 0,
        "tle_line1": "1 37867U 11064A   25360.42460541 -.00000007  00000+0  00000+0 0  9991",
        "tle_line2": "2 37867  65.1690  78.7087 0024578 235.1101 231.2674  2.13103879110085"
      },
      "geometry": {
        "type": "Point",
        "coordinates": [
          -39.52641254538721,
          -62.311952430080176
        ]
      }
    },
    {
      "type": "Feature",
      "properties": {
        "norad_id": 37868,
        "name": "COSMOS 2477 (745)",
        "group": "glo-ops",
        "lat": 62.59910905607481,
        "lon": 141.85789453049907,
        "alt_km": 19173.89202707544,
        "timestamp": "2025-12-27T02:10:16.450452+00:00",
        "meta_object_name": "COSMOS 2477 (745)",
        "meta_object_id": "2011-064B",
        "meta_epoch": "2025-12-24T15:22:57.950400",
        "meta_mean_motion": 2.13103036,
        "meta_eccentricity": 0.00215718,
        "meta_inclination": 65.1748,
        "meta_ra_of_asc_node": 78.8466,
        "meta_arg_of_pericenter": 235.4688,
        "meta_mean_anomaly": 123.4303,
        "meta_ephemeris_type": 0,
        "meta_classification_type": "U",
        "meta_norad_cat_id": 37868,
        "meta_element_set_no": 999,
        "meta_rev_at_epoch": 11003,
        "meta_bstar": 0,
        "meta_mean_motion_dot": 1e-08,
        "meta_mean_motion_ddot": 0,
        "tle_line1": "1 37868U 11064B   25358.64094850  .00000001  00000+0  00000+0 0  9992",
        "tle_line2": "2 37868  65.1748  78.8466 0021571 235.4688 123.4303  2.13103036110036"
      },
      "geometry": {
        "type": "Point",
        "coordinates": [
          141.85789453049907,
          62.59910905607481
        ]
      }
    },
    {
      "type": "Feature",
      "properties": {
        "norad_id": 37869,
        "name": "COSMOS 2475 (743)",
        "group": "glo-ops",
        "lat": 30.595944069633344,
        "lon": 94.65129375290229,
        "alt_km": 19182.377860558023,
        "timestamp": "2025-12-27T02:10:16.450479+00:00",
        "meta_object_name": "COSMOS 2475 (743)",
        "meta_object_id": "2011-064C",
        "meta_epoch": "2025-12-26T02:48:59.782176",
        "meta_mean_motion": 2.13101658,
        "meta_eccentricity": 0.00268162,
        "meta_inclination": 65.1822,
        "meta_ra_of_asc_node": 78.8169,
        "meta_arg_of_pericenter": 249.2724,
        "meta_mean_anomaly": 118.1607,
        "meta_ephemeris_type": 0,
        "meta_classification_type": "U",
        "meta_norad_cat_id": 37869,
        "meta_element_set_no": 999,
        "meta_rev_at_epoch": 11008,
        "meta_bstar": 0,
        "meta_mean_motion_dot": -5e-08,
        "meta_mean_motion_ddot": 0,
        "tle_line1": "1 37869U 11064C   25360.11735859 -.00000005  00000+0  00000+0 0  9994",
        "tle_line2": "2 37869  65.1822  78.8169 0026816 249.2724 118.1607  2.13101658110082"
      },
      "geometry": {
        "type": "Point",
        "coordinates": [
          94.65129375290229,
          30.595944069633344
        ]
      }
    },
    {
      "type": "Feature",
      "properties": {
        "norad_id": 39155,
        "name": "COSMOS 2485 (747)",
        "group": "glo-ops",
        "lat": -47.53567079211666,
        "lon": 49.28291733729058,
        "alt_km": 19118.934744780192,
        "timestamp": "2025-12-27T02:10:16.450492+00:00",
        "meta_object_name": "COSMOS 2485 (747)",
        "meta_object_id": "2013-019A",
        "meta_epoch": "2025-12-26T16:36:31.892256",
        "meta_mean_motion": 2.13103192,
        "meta_eccentricity": 0.0025021,
        "meta_inclination": 65.3204,
        "meta_ra_of_asc_node": 79.3983,
        "meta_arg_of_pericenter": 230.593,
        "meta_mean_anomaly": 129.2312,
        "meta_ephemeris_type": 0,
        "meta_classification_type": "U",
        "meta_norad_cat_id": 39155,
        "meta_element_set_no": 999,
        "meta_rev_at_epoch": 9860,
        "meta_bstar": 0,
        "meta_mean_motion_dot": -8e-08,
        "meta_mean_motion_ddot": 0,
        "tle_line1": "1 39155U 13019A   25360.69203579 -.00000008  00000+0  00000+0 0  9991",
        "tle_line2": "2 39155  65.3204  79.3983 0025021 230.5930 129.2312  2.13103192 98601"
      },
      "geometry": {
        "type": "Point",
        "coordinates": [
          49.28291733729058,
          -47.53567079211666
        ]
      }
    },
    {
      "type": "Feature",
      "properties": {
        "norad_id": 39620,
        "name": "COSMOS 2492 (754)",
        "group": "glo-ops",
        "lat": -20.482536364227855,
        "lon": -50.07554788960607,
        "alt_km": 19099.254383458992,
        "timestamp": "2025-12-27T02:10:16.450503+00:00",
        "meta_object_name": "COSMOS 2492 (754)",
        "meta_object_id": "2014-012A",
        "meta_epoch": "2025-12-26T15:36:55.855008",
        "meta_mean_motion": 2.13103318,
        "meta_eccentricity": 0.0014326,
        "meta_inclination": 65.4001,
        "meta_ra_of_asc_node": 319.7994,
        "meta_arg_of_pericenter": 314.1039,
        "meta_mean_anomaly": 45.7823,
        "meta_ephemeris_type": 0,
        "meta_classification_type": "U",
        "meta_norad_cat_id": 39620,
        "meta_element_set_no": 999,
        "meta_rev_at_epoch": 9156,
        "meta_bstar": 0,
        "meta_mean_motion_dot": -3.5e-07,
        "meta_mean_motion_ddot": 0,
        "tle_line1": "1 39620U 14012A   25360.65064647 -.00000035  00000+0  00000+0 0  9999",
        "tle_line2": "2 39620  65.4001 319.7994 0014326 314.1039  45.7823  2.13103318 91569"
      },
      "geometry": {
        "type": "Point",
        "coordinates": [
          -50.07554788960607,
          -20.482536364227855
        ]
      }
    },
    {
      "type": "Feature",
      "properties": {
        "norad_id": 40001,
        "name": "COSMOS 2500 (755)",
        "group": "glo-ops",
        "lat": -22.975557350233288,
        "lon": 150.75749881605933,
        "alt_km": 19114.095344853245,
        "timestamp": "2025-12-27T02:10:16.450515+00:00",
        "meta_object_name": "COSMOS 2500 (755)",
        "meta_object_id": "2014-032A",
        "meta_epoch": "2025-12-26T08:28:54.444288",
        "meta_mean_motion": 2.13106178,
        "meta_eccentricity": 0.0007619,
        "meta_inclination": 65.3358,
        "meta_ra_of_asc_node": 319.5702,
        "meta_arg_of_pericenter": 219.616,
        "meta_mean_anomaly": 140.3327,
        "meta_ephemeris_type": 0,
        "meta_classification_type": "U",
        "meta_norad_cat_id": 40001,
        "meta_element_set_no": 999,
        "meta_rev_at_epoch": 8977,
        "meta_bstar": 0,
        "meta_mean_motion_dot": -3.4e-07,
        "meta_mean_motion_ddot": 0,
        "tle_line1": "1 40001U 14032A   25360.35340792 -.00000034  00000+0  00000+0 0  9990",
        "tle_line2": "2 40001  65.3358 319.5702 0007619 219.6160 140.3327  2.13106178 89772"
      },
      "geometry": {
        "type": "Point",
        "coordinates": [
          150.75749881605933,
          -22.975557350233288
        ]
      }
    },
    {
      "type": "Feature",
      "properties": {
        "norad_id": 40315,
        "name": "COSMOS 2501 (702K)",
        "group": "glo-ops",
        "lat": 5.416763619149002,
        "lon": -160.97022578629839,
        "alt_km": 19178.51207441702,
        "timestamp": "2025-12-27T02:10:16.450526+00:00",
        "meta_object_name": "COSMOS 2501 (702K)",
        "meta_object_id": "2014-075A",
        "meta_epoch": "2025-12-26T03:27:24.522048",
        "meta_mean_motion": 2.13101463,
        "meta_eccentricity": 0.0020084,
        "meta_inclination": 63.6159,
        "meta_ra_of_asc_node": 196.3605,
        "meta_arg_of_pericenter": 203.9081,
        "meta_mean_anomaly": 156.0501,
        "meta_ephemeris_type": 0,
        "meta_classification_type": "U",
        "meta_norad_cat_id": 40315,
        "meta_element_set_no": 999,
        "meta_rev_at_epoch": 8616,
        "meta_bstar": 0,
        "meta_mean_motion_dot": 1.12e-06,
        "meta_mean_motion_ddot": 0,
        "tle_line1": "1 40315U 14075A   25360.14403382  .00000112  00000+0  00000+0 0  9993",
        "tle_line2": "2 40315  63.6159 196.3605 0020084 203.9081 156.0501  2.13101463 86162"
      },
      "geometry": {
        "type": "Point",
        "coordinates": [
          -160.97022578629839,
          5.416763619149002
        ]
      }
    }
  ]
}